{
  "type": "FeatureCollection",
  "features": [
    {
      "type": "Feature",
      "properties": {
        "norad_id": 40069,
        "name": "METEOR-M 2",
        "group": "weather",
        "lat": 79.44864283632687,
        "lon": -152.9895722577334,
        "alt_km": 812.7692390555458,
        "timestamp": "2025-12-22T11:33:20.071803+00:00",
        "meta_object_name": "METEOR-M 2",
        "meta_object_id": "2014-037A",
        "meta_epoch": "2025-12-22T04:20:46.577760",
        "meta_mean_motion": 14.21390164,
        "meta_eccentricity": 0.0005449,
        "meta_inclination": 98.4906,
        "meta_ra_of_asc_node": 333.4037,
        "meta_arg_of_pericenter": 179.8181,
        "meta_mean_anomaly": 180.3,
        "meta_ephemeris_type": 0,
        "meta_classification_type": "U",
        "meta_norad_cat_id": 40069,
        "meta_element_set_no": 999,
        "meta_rev_at_epoch": 59417,
        "meta_bstar": 8.8626e-05,
        "meta_mean_motion_dot": 1.52e-06,
        "meta_mean_motion_ddot": 0,
        "tle_line1": "1 40069U 14037A   25356.18109465  .00000152  00000+0  88626-4 0  9990",
        "tle_line2": "2 40069  98.4906 333.4037 0005449 179.8181 180.3000 14.21390164594176"
      },
      "geometry": {
        "type": "Point",
        "coordinates": [
          -152.9895722577334,
          79.44864283632687
        ]
      }
    },
    {
      "type": "Feature",
      "properties": {
        "norad_id": 40267,
        "name": "HIMAWARI-8",
        "group": "weather",
        "lat": -0.008277762684234144,
        "lon": 45.28257794298206,
        "alt_km": 35787.763371358626,
        "timestamp": "2025-12-22T11:33:20.071815+00:00",
        "meta_object_name": "HIMAWARI-8",
        "meta_object_id": "2014-060A",
        "meta_epoch": "2025-12-21T22:25:33.595104",
        "meta_mean_motion": 1.00270403,
        "meta_eccentricity": 9.04e-05,
        "meta_inclination": 0.0391,
        "meta_ra_of_asc_node": 132.8163,
        "meta_arg_of_pericenter": 163.8668,
        "meta_mean_anomaly": 271.1169,
        "meta_ephemeris_type": 0,
        "meta_classification_type": "U",
        "meta_norad_cat_id": 40267,
        "meta_element_set_no": 999,
        "meta_rev_at_epoch": 4098,
        "meta_bstar": 0,
        "meta_mean_motion_dot": -2.53e-06,
        "meta_mean_motion_ddot": 0,
        "tle_line1": "1 40267U 14060A   25355.93441661 -.00000253  00000+0  00000+0 0  9993",
        "tle_line2": "2 40267   0.0391 132.8163 0000904 163.8668 271.1169  1.00270403 40984"
      },
      "geometry": {
        "type": "Point",
        "coordinates": [
          45.28257794298206,
          -0.008277762684234144
        ]
      }
    },
    {
      "type": "Feature",
      "properties": {
        "norad_id": 40367,
        "name": "FENGYUN 2G",
        "group": "weather",
        "lat": -4.917561179120384,
        "lon": 3.9220344721727414,
        "alt_km": 35788.8885253426,
        "timestamp": "2025-12-22T11:33:20.071827+00:00",
        "meta_object_name": "FENGYUN 2G",
        "meta_object_id": "2014-090A",
        "meta_epoch": "2025-12-22T01:39:14.264640",
        "meta_mean_motion": 1.00260639,
        "meta_eccentricity": 0.000265,
        "meta_inclination": 5.1903,
        "meta_ra_of_asc_node": 74.9911,
        "meta_arg_of_pericenter": 204.0902,
        "meta_mean_anomaly": 295.8253,
        "meta_ephemeris_type": 0,
        "meta_classification_type": "U",
        "meta_norad_cat_id": 40367,
        "meta_element_set_no": 999,
        "meta_rev_at_epoch": 4022,
        "meta_bstar": 0,
        "meta_mean_motion_dot": -2.79e-06,
        "meta_mean_motion_ddot": 0,
        "tle_line1": "1 40367U 14090A   25356.06891510 -.00000279  00000+0  00000+0 0  9992",
        "tle_line2": "2 40367   5.1903  74.9911 0002650 204.0902 295.8253  1.00260639 40220"
      },
      "geometry": {
        "type": "Point",
        "coordinates": [
          3.9220344721727414,
          -4.917561179120384
        ]
      }
    },
    {
      "type": "Feature",
      "properties": {
        "norad_id": 40732,
        "name": "METEOSAT-11 (MSG-4)",
        "group": "weather",
        "lat": -1.0513504703789647,
        "lon": -86.20986753355638,
        "alt_km": 35785.15305502329,
        "timestamp": "2025-12-22T11:33:20.071840+00:00",
        "meta_object_name": "METEOSAT-11 (MSG-4)",
        "meta_object_id": "2015-034A",
        "meta_epoch": "2025-12-22T01:13:32.505888",
        "meta_mean_motion": 1.00270407,
        "meta_eccentricity": 7.89e-05,
        "meta_inclination": 2.7595,
        "meta_ra_of_asc_node": 71.9774,
        "meta_arg_of_pericenter": 136.9647,
        "meta_mean_anomaly": 269.4964,
        "meta_ephemeris_type": 0,
        "meta_classification_type": "U",
        "meta_norad_cat_id": 40732,
        "meta_element_set_no": 999,
        "meta_rev_at_epoch": 544,
        "meta_bstar": 0,
        "meta_mean_motion_dot": 8.1e-07,
        "meta_mean_motion_ddot": 0,
        "tle_line1": "1 40732U 15034A   25356.05107067  .00000081  00000+0  00000+0 0  9993",
        "tle_line2": "2 40732   2.7595  71.9774 0000789 136.9647 269.4964  1.00270407  5445"
      },
      "geometry": {
        "type": "Point",
        "coordinates": [
          -86.20986753355638,
          -1.0513504703789647
        ]
      }
    },
    {
      "type": "Feature",
      "properties": {
        "norad_id": 41105,
        "name": "ELEKTRO-L 2",
        "group": "weather",
        "lat": 0.262870449824563,
        "lon": -109.85846016613313,
        "alt_km": 35773.198309117455,
        "timestamp": "2025-12-22T11:33:20.071852+00:00",
        "meta_object_name": "ELEKTRO-L 2",
        "meta_object_id": "2015-074A",
        "meta_epoch": "2025-12-22T01:06:40.663872",
        "meta_mean_motion": 1.0027241,
        "meta_eccentricity": 0.000351,
        "meta_inclination": 6.2477,
        "meta_ra_of_asc_node": 72.7176,
        "meta_arg_of_pericenter": 208.8896,
        "meta_mean_anomaly": 171.4459,
        "meta_ephemeris_type": 0,
        "meta_classification_type": "U",
        "meta_norad_cat_id": 41105,
        "meta_element_set_no": 999,
        "meta_rev_at_epoch": 3673,
        "meta_bstar": 0,
        "meta_mean_motion_dot": -9.9e-07,
        "meta_mean_motion_ddot": 0,
        "tle_line1": "1 41105U 15074A   25356.04630398 -.00000099  00000+0  00000+0 0  9999",
        "tle_line2": "2 41105   6.2477  72.7176 0003510 208.8896 171.4459  1.00272410 36736"
      },
      "geometry": {
        "type": "Point",
        "coordinates": [
          -109.85846016613313,
          0.262870449824563
        ]
      }
    },
    {
      "type": "Feature",
      "properties": {
        "norad_id": 41752,
        "name": "INSAT-3DR",
        "group": "weather",
        "lat": -0.11858519676311315,
        "lon": -21.247997973366065,
        "alt_km": 35762.66881832488,
        "timestamp": "2025-12-22T11:33:20.071864+00:00",
        "meta_object_name": "INSAT-3DR",
        "meta_object_id": "2016-054A",
        "meta_epoch": "2025-12-22T03:14:42.620064",
        "meta_mean_motion": 1.00271607,
        "meta_eccentricity": 0.0014171,
        "meta_inclination": 0.1142,
        "meta_ra_of_asc_node": 86.2504,
        "meta_arg_of_pericenter": 185.4248,
        "meta_mean_anomaly": 301.9366,
        "meta_ephemeris_type": 0,
        "meta_classification_type": "U",
        "meta_norad_cat_id": 41752,
        "meta_element_set_no": 999,
        "meta_rev_at_epoch": 3404,
        "meta_bstar": 0,
        "meta_mean_motion_dot": -5.5e-07,
        "meta_mean_motion_ddot": 0,
        "tle_line1": "1 41752U 16054A   25356.13521551 -.00000055  00000+0  00000+0 0  9998",
        "tle_line2": "2 41752   0.1142  86.2504 0014171 185.4248 301.9366  1.00271607 34043"
      },
      "geometry": {
        "type": "Point",
        "coordinates": [
          -21.247997973366065,
          -0.11858519676311315
        ]
      }
    },
    {
      "type": "Feature",
      "properties": {
        "norad_id": 41836,
        "name": "HIMAWARI-9",
        "group": "weather",
        "lat": 0.02088895670871507,
        "lon": 45.40095933736439,
        "alt_km": 35783.90384094795,
        "timestamp": "2025-12-22T11:33:20.071876+00:00",
        "meta_object_name": "HIMAWARI-9",
        "meta_object_id": "2016-064A",
        "meta_epoch": "2025-12-21T22:25:41.083392",
        "meta_mean_motion": 1.00273007,
        "meta_eccentricity": 0.0001509,
        "meta_inclination": 0.0167,
        "meta_ra_of_asc_node": 21.999,
        "meta_arg_of_pericenter": 310.9837,
        "meta_mean_anomaly": 234.9553,
        "meta_ephemeris_type": 0,
        "meta_classification_type": "U",
        "meta_norad_cat_id": 41836,
        "meta_element_set_no": 999,
        "meta_rev_at_epoch": 3343,
        "meta_bstar": 0,
        "meta_mean_motion_dot": 0,
        "meta_mean_motion_ddot": 0,
        "tle_line1": "1 41836U 16064A   25355.93450328  .00000000  00000+0  00000+0 0  9991",
        "tle_line2": "2 41836   0.0167  21.9990 0001509 310.9837 234.9553  1.00273007 33438"
      },
      "geometry": {
        "type": "Point",
        "coordinates": [
          45.40095933736439,
          0.02088895670871507
        ]
      }
    }
  ]
}